CALSPHERE 1             
1 00900U 64063C   09171.51118933  .00000168  00000-0  17855-3 0  8158
2 00900  90.1597 327.1376 0026420 218.4449 141.4833 13.70465506219921
CALSPHERE 2             
1 00902U 64063E   09171.93248110  .00000075  00000-0  10000-3 0   869
2 00902  90.1599 330.1287 0016068 235.9940 123.9688 13.52465284 17873
LCS 1                   
1 01361U 65034C   09171.87750241  .00000009  00000-0  10000-3 0  1121
2 01361  32.1364 150.2753 0005988 357.0547   2.9918  9.89276735595729
TEMPSAT 1               
1 01512U 65065E   09171.91057084  .00000059  00000-0  10000-3 0  1690
2 01512  89.8106 300.3135 0071353  31.0481 329.4843 13.33258661133125
CALSPHERE 4(A)          
1 01520U 65065H   09171.73750551  .00000059  00000-0  10000-3 0  3038
2 01520  90.1880  83.3095 0069537 319.1481  40.4451 13.35315893134727
OPS 5712 (P/L 160)      
1 02826U 67053A   09171.18131653  .00000406  00000-0  15283-3 0  7502
2 02826  69.9312 161.2687 0006138 163.3642 196.7662 14.38255564167727
OPS 5712 (P/L 153)      
1 02874U 67053H   09172.01039919 -.00000033  00000-0  15100-4 0  1421
2 02874  69.9724  83.7818 0008536 312.1682  47.8696 13.95923559141074
SURCAL 150B             
1 02909U 67053J   09171.25339860  .00000324  00000-0  10688-3 0  9260
2 02909  69.9555 335.7063 0004414 311.5585  48.5176 14.46470342173411
RIGIDSPHERE 2 (LCS 4)   
1 05398U 71067E   09171.27027317  .00000076  00000-0  21364-4 0  5891
2 05398  87.6221 248.5840 0066227 162.7894 197.5592 14.31156852985000
RADCAT                  
1 06212U 72076A   09171.30628107  .00001156  00000-0  44668-4 0  7654
2 06212  98.5938 179.9087 0003430  10.1730 349.9600 15.28853592123351
